start=new Date('2021-10-20T00:00:00.000Z').valueOf();
sats=[{"OBJECT_NAME":"STARLINK-1578","TIME_SYSTEM":"UTC","SEMIMAJOR_AXIS":"6925.345","MEAN_MOTION_DOT":"0.00001370","RCS_SIZE":"LARGE","PERIOD":"95.592","MEAN_ELEMENT_THEORY":"SGP4","CLASSIFICATION_TYPE":"U","RA_OF_ASC_NODE":"87.4848","SITE":"AFETR","APOAPSIS":"548.321","EPHEMERIS_TYPE":"0","LAUNCH_DATE":"2020-08-07","NORAD_CAT_ID":"46082","GP_ID":"187629520","TLE_LINE1":"1 46082U 20055BH  21292.86670363  .00001370  00000-0  11086-3 0  9997","INCLINATION":"53.0538","MEAN_MOTION":"15.06401091","FILE":"3172644","ARG_OF_PERICENTER":"95.2753","ELEMENT_SET_NO":"999","BSTAR":"0.00011086000000","ECCENTRICITY":"0.00016040","DECAY_DATE":null,"TLE_LINE2":"2 46082  53.0538  87.4848 0001604  95.2753 264.8419 15.06401091 67876","PERIAPSIS":"546.099","REV_AT_EPOCH":"6787","CENTER_NAME":"EARTH","COUNTRY_CODE":"US","OBJECT_ID":"2020-055BH","EPOCH":"2021-10-19T20:48:03.193632","OBJECT_TYPE":"PAYLOAD","REF_FRAME":"TEME","MEAN_MOTION_DDOT":"0.0000000000000","MEAN_ANOMALY":"264.8419"},{"INCLINATION":"53.0539","FILE":"3172644","MEAN_MOTION":"15.06401738","TLE_LINE1":"1 46083U 20055BJ  21292.83720600  .00001826  00000-0  14146-3 0  9991","NORAD_CAT_ID":"46083","GP_ID":"187629765","EPHEMERIS_TYPE":"0","LAUNCH_DATE":"2020-08-07","APOAPSIS":"548.217","CLASSIFICATION_TYPE":"U","RA_OF_ASC_NODE":"87.6143","SITE":"AFETR","MEAN_ELEMENT_THEORY":"SGP4","PERIOD":"95.592","SEMIMAJOR_AXIS":"6925.343","MEAN_MOTION_DOT":"0.00001826","RCS_SIZE":"LARGE","TIME_SYSTEM":"UTC","OBJECT_NAME":"STARLINK-1579","MEAN_MOTION_DDOT":"0.0000000000000","MEAN_ANOMALY":"270.7472","REF_FRAME":"TEME","OBJECT_TYPE":"PAYLOAD","EPOCH":"2021-10-19T20:05:34.598400","OBJECT_ID":"2020-055BJ","COUNTRY_CODE":"US","CENTER_NAME":"EARTH","REV_AT_EPOCH":"6786","PERIAPSIS":"546.199","DECAY_DATE":null,"TLE_LINE2":"2 46083  53.0539  87.6143 0001457  89.3684 270.7472 15.06401738 67863","ELEMENT_SET_NO":"999","BSTAR":"0.00014146000000","ECCENTRICITY":"0.00014570","ARG_OF_PERICENTER":"89.3684"},{"OBJECT_ID":"2020-057A","COUNTRY_CODE":"US","OBJECT_TYPE":"PAYLOAD","EPOCH":"2021-10-19T09:44:33.228096","REF_FRAME":"TEME","MEAN_ANOMALY":"283.7445","MEAN_MOTION_DDOT":"0.0000000000000","ARG_OF_PERICENTER":"76.3698","TLE_LINE2":"2 46117  53.0552 289.5597 0001377  76.3698 283.7445 15.06397732 65505","DECAY_DATE":null,"BSTAR":"-0.00000397440000","ECCENTRICITY":"0.00013770","ELEMENT_SET_NO":"999","PERIAPSIS":"546.267","CENTER_NAME":"EARTH","REV_AT_EPOCH":"6550","LAUNCH_DATE":"2020-08-18","EPHEMERIS_TYPE":"0","GP_ID":"187581481","NORAD_CAT_ID":"46117","TLE_LINE1":"1 46117U 20057A   21292.40594014 -.00000341  00000-0 -39744-5 0  9998","MEAN_MOTION":"15.06397732","FILE":"3171444","INCLINATION":"53.0552","TIME_SYSTEM":"UTC","OBJECT_NAME":"STARLINK-1585","PERIOD":"95.592","RCS_SIZE":"LARGE","MEAN_MOTION_DOT":"-0.00000341","SEMIMAJOR_AXIS":"6925.356","SITE":"AFETR","CLASSIFICATION_TYPE":"U","RA_OF_ASC_NODE":"289.5597","MEAN_ELEMENT_THEORY":"SGP4","APOAPSIS":"548.174"},{"PERIOD":"95.592","MEAN_MOTION_DOT":"0.00000049","RCS_SIZE":"LARGE","SEMIMAJOR_AXIS":"6925.348","TIME_SYSTEM":"UTC","OBJECT_NAME":"STARLINK-1588","APOAPSIS":"548.148","SITE":"AFETR","CLASSIFICATION_TYPE":"U","RA_OF_ASC_NODE":"308.9258","MEAN_ELEMENT_THEORY":"SGP4","NORAD_CAT_ID":"46118","GP_ID":"187597762","LAUNCH_DATE":"2020-08-18","EPHEMERIS_TYPE":"0","MEAN_MOTION":"15.06400300","FILE":"3172124","INCLINATION":"53.0535","TLE_LINE1":"1 46118U 20057B   21292.54785234  .00000049  00000-0  22151-4 0  9996","TLE_LINE2":"2 46118  53.0535 308.9258 0001351  81.2180 278.8962 15.06400300 65246","DECAY_DATE":null,"BSTAR":"0.00002215100000","ECCENTRICITY":"0.00013510","ELEMENT_SET_NO":"999","ARG_OF_PERICENTER":"81.2180","CENTER_NAME":"EARTH","REV_AT_EPOCH":"6524","PERIAPSIS":"546.277","OBJECT_TYPE":"PAYLOAD","EPOCH":"2021-10-19T13:08:54.442176","OBJECT_ID":"2020-057B","COUNTRY_CODE":"US","MEAN_MOTION_DDOT":"0.0000000000000","MEAN_ANOMALY":"278.8962","REF_FRAME":"TEME"},{"REV_AT_EPOCH":"6583","CENTER_NAME":"EARTH","PERIAPSIS":"546.320","BSTAR":"0.00015568000000","ECCENTRICITY":"0.00012690","ELEMENT_SET_NO":"999","TLE_LINE2":"2 46119  53.0552 309.2673 0001269  76.6341 283.4789 15.06404885 65832","DECAY_DATE":null,"ARG_OF_PERICENTER":"76.6341","MEAN_ANOMALY":"283.4789","MEAN_MOTION_DDOT":"0.0000000000000","REF_FRAME":"TEME","EPOCH":"2021-10-19T11:17:27.825216","OBJECT_TYPE":"PAYLOAD","COUNTRY_CODE":"US","OBJECT_ID":"2020-057C","APOAPSIS":"548.077","MEAN_ELEMENT_THEORY":"SGP4","SITE":"AFETR","RA_OF_ASC_NODE":"309.2673","CLASSIFICATION_TYPE":"U","RCS_SIZE":"LARGE","MEAN_MOTION_DOT":"0.00002038","SEMIMAJOR_AXIS":"6925.334","PERIOD":"95.592","OBJECT_NAME":"STARLINK-1593","TIME_SYSTEM":"UTC","MEAN_MOTION":"15.06404885","FILE":"3171120","INCLINATION":"53.0552","TLE_LINE1":"1 46119U 20057C   21292.47046094  .00002038  00000-0  15568-3 0  9996","GP_ID":"187570229","NORAD_CAT_ID":"46119","LAUNCH_DATE":"2020-08-18","EPHEMERIS_TYPE":"0"},{"NORAD_CAT_ID":"46120","GP_ID":"187569980","LAUNCH_DATE":"2020-08-18","EPHEMERIS_TYPE":"0","FILE":"3171120","MEAN_MOTION":"15.06404086","INCLINATION":"53.0548","TLE_LINE1":"1 46120U 20057D   21292.32302495  .00001623  00000-0  12779-3 0  9992","RCS_SIZE":"LARGE","MEAN_MOTION_DOT":"0.00001623","SEMIMAJOR_AXIS":"6925.336","PERIOD":"95.592","OBJECT_NAME":"STARLINK-1601","TIME_SYSTEM":"UTC","APOAPSIS":"548.102","MEAN_ELEMENT_THEORY":"SGP4","SITE":"AFETR","RA_OF_ASC_NODE":"309.9269","CLASSIFICATION_TYPE":"U","EPOCH":"2021-10-19T07:45:09.355680","OBJECT_TYPE":"PAYLOAD","COUNTRY_CODE":"US","OBJECT_ID":"2020-057D","MEAN_MOTION_DDOT":"0.0000000000000","MEAN_ANOMALY":"298.2232","REF_FRAME":"TEME","BSTAR":"0.00012779000000","ECCENTRICITY":"0.00013010","ELEMENT_SET_NO":"999","TLE_LINE2":"2 46120  53.0548 309.9269 0001301  61.8889 298.2232 15.06404086 65837","DECAY_DATE":null,"ARG_OF_PERICENTER":"61.8889","REV_AT_EPOCH":"6583","CENTER_NAME":"EARTH","PERIAPSIS":"546.300"},{"REV_AT_EPOCH":"6488","CENTER_NAME":"EARTH","PERIAPSIS":"546.095","BSTAR":"0.00000913530000","ECCENTRICITY":"0.00016100","ELEMENT_SET_NO":"999","TLE_LINE2":"2 46121  53.0547 288.2816 0001610  69.1001 291.0160 15.06401111 64885","DECAY_DATE":null,"ARG_OF_PERICENTER":"69.1001","MEAN_ANOMALY":"291.0160","MEAN_MOTION_DDOT":"0.0000000000000","REF_FRAME":"TEME","EPOCH":"2021-10-19T16:33:15.054912","OBJECT_TYPE":"PAYLOAD","COUNTRY_CODE":"US","OBJECT_ID":"2020-057E","APOAPSIS":"548.325","MEAN_ELEMENT_THEORY":"SGP4","SITE":"AFETR","RA_OF_ASC_NODE":"288.2816","CLASSIFICATION_TYPE":"U","MEAN_MOTION_DOT":"-0.00000145","RCS_SIZE":"LARGE","SEMIMAJOR_AXIS":"6925.345","PERIOD":"95.592","OBJECT_NAME":"STARLINK-1602","TIME_SYSTEM":"UTC","MEAN_MOTION":"15.06401111","FILE":"3172644","INCLINATION":"53.0547","TLE_LINE1":"1 46121U 20057E   21292.68975758 -.00000145  00000-0  91353-5 0  9996","NORAD_CAT_ID":"46121","GP_ID":"187628775","LAUNCH_DATE":"2020-08-18","EPHEMERIS_TYPE":"0"},{"MEAN_MOTION_DDOT":"0.0000000000000","MEAN_ANOMALY":"292.2980","REF_FRAME":"TEME","OBJECT_TYPE":"PAYLOAD","EPOCH":"2021-10-19T15:11:00.320640","OBJECT_ID":"2020-057F","COUNTRY_CODE":"US","CENTER_NAME":"EARTH","REV_AT_EPOCH":"6641","PERIAPSIS":"546.225","DECAY_DATE":null,"TLE_LINE2":"2 46122  53.0538 268.5322 0001395  67.8156 292.2980 15.06407415 66412","ELEMENT_SET_NO":"999","BSTAR":"0.00017873000000","ECCENTRICITY":"0.00013950","ARG_OF_PERICENTER":"67.8156","INCLINATION":"53.0538","MEAN_MOTION":"15.06407415","FILE":"3172644","TLE_LINE1":"1 46122U 20057F   21292.63264260  .00002382  00000-0  17873-3 0  9998","NORAD_CAT_ID":"46122","GP_ID":"187629525","EPHEMERIS_TYPE":"0","LAUNCH_DATE":"2020-08-18","APOAPSIS":"548.157","CLASSIFICATION_TYPE":"U","RA_OF_ASC_NODE":"268.5322","SITE":"AFETR","MEAN_ELEMENT_THEORY":"SGP4","PERIOD":"95.592","SEMIMAJOR_AXIS":"6925.326","MEAN_MOTION_DOT":"0.00002382","RCS_SIZE":"LARGE","TIME_SYSTEM":"UTC","OBJECT_NAME":"STARLINK-1604"},{"OBJECT_ID":"2020-057G","COUNTRY_CODE":"US","OBJECT_TYPE":"PAYLOAD","EPOCH":"2021-10-19T10:03:08.060256","REF_FRAME":"TEME","MEAN_ANOMALY":"286.9586","MEAN_MOTION_DDOT":"0.0000000000000","ARG_OF_PERICENTER":"73.1573","TLE_LINE2":"2 46123  53.0530 269.4941 0001552  73.1573 286.9586 15.06408394 65788","DECAY_DATE":null,"BSTAR":"0.00010804000000","ECCENTRICITY":"0.00015520","ELEMENT_SET_NO":"999","PERIAPSIS":"546.113","CENTER_NAME":"EARTH","REV_AT_EPOCH":"6578","LAUNCH_DATE":"2020-08-18","EPHEMERIS_TYPE":"0","NORAD_CAT_ID":"46123","GP_ID":"187574549","TLE_LINE1":"1 46123U 20057G   21292.41884329  .00001328  00000-0  10804-3 0  9995","MEAN_MOTION":"15.06408394","FILE":"3171202","INCLINATION":"53.0530","TIME_SYSTEM":"UTC","OBJECT_NAME":"STARLINK-1605","PERIOD":"95.592","MEAN_MOTION_DOT":"0.00001328","RCS_SIZE":"LARGE","SEMIMAJOR_AXIS":"6925.323","SITE":"AFETR","CLASSIFICATION_TYPE":"U","RA_OF_ASC_NODE":"269.4941","MEAN_ELEMENT_THEORY":"SGP4","APOAPSIS":"548.263"},{"INCLINATION":"53.0549","MEAN_MOTION":"15.06410795","FILE":"3171182","TLE_LINE1":"1 46124U 20057H   21292.42621698  .00001904  00000-0  14664-3 0  9993","GP_ID":"187574656","NORAD_CAT_ID":"46124","EPHEMERIS_TYPE":"0","LAUNCH_DATE":"2020-08-18","APOAPSIS":"548.167","RA_OF_ASC_NODE":"269.4653","CLASSIFICATION_TYPE":"U","SITE":"AFETR","MEAN_ELEMENT_THEORY":"SGP4","PERIOD":"95.591","SEMIMAJOR_AXIS":"6925.315","RCS_SIZE":"LARGE","MEAN_MOTION_DOT":"0.00001904","TIME_SYSTEM":"UTC","OBJECT_NAME":"STARLINK-1614","MEAN_MOTION_DDOT":"0.0000000000000","MEAN_ANOMALY":"292.3454","REF_FRAME":"TEME","OBJECT_TYPE":"PAYLOAD","EPOCH":"2021-10-19T10:13:45.147072","OBJECT_ID":"2020-057H","COUNTRY_CODE":"US","CENTER_NAME":"EARTH","REV_AT_EPOCH":"6579","PERIAPSIS":"546.194","DECAY_DATE":null,"TLE_LINE2":"2 46124  53.0549 269.4653 0001424  67.7686 292.3454 15.06410795 65795","ELEMENT_SET_NO":"999","BSTAR":"0.00014664000000","ECCENTRICITY":"0.00014240","ARG_OF_PERICENTER":"67.7686"}];
